NORAD_CAT_ID,OBJECT_NAME,OBJECT_TYPE,EPOCH,MEAN_MOTION,ECCENTRICITY,INCLINATION,RA_OF_ASC_NODE,ARG_OF_PERICENTER,MEAN_ANOMALY,BSTAR,MEAN_MOTION_DOT,MEAN_MOTION_DDOT,TLE_LINE0,TLE_LINE1,TLE_LINE2,SEMIMAJOR_AXIS,PERIOD,APOGEE,PERIGEE,DECAYED
51746.0,STARLINK-3502,PAYLOAD,2022-04-26 14:00:01,15.70882635,0.0003185,53.2174,182.8817,0.0753,224.1065,-0.0060913,-0.00713048,0.0,0 STARLINK-3502,1 51746U 22016AJ  22116.58335648 -.00713048  00000-0 -60913-2 0  9994,2 51746  53.2174 182.8817 0003185   0.0753 224.1065 15.70882635  3709,6734.51,91.668,358.52,354.23,0.0
51746.0,STARLINK-3502,PAYLOAD,2022-04-26 22:00:00,15.70378329,0.0003198,53.2175,181.2343,6.8836,303.0692,-0.00631,-0.00722309,0.0,0 STARLINK-3502,1 51746U 22016AJ  22116.91667824 -.00722309  00000-0 -63100-2 0  9996,2 51746  53.2175 181.2343 0003198   6.8836 303.0692 15.70378329  3676,6735.9519999999975,91.698,359.971,355.663,0.0
51746.0,STARLINK-3502,PAYLOAD,2022-04-27 06:00:00,15.69872846,0.0005207,53.2176,179.5898,310.8496,84.3262,-0.0065072,-0.00729354,0.0,0 STARLINK-3502,1 51746U 22016AJ  22117.25001157 -.00729354  00000-0 -65072-2 0  9992,2 51746  53.2176 179.5898 0005207 310.8496  84.3262 15.69872846 11442,6737.398,91.727,362.771,355.755,0.0
51746.0,STARLINK-3502,PAYLOAD,2022-04-27 14:00:01,15.69248676,0.0003025,53.2167,177.9539,281.2569,198.6571,-0.0052715,-0.00585144,0.0,0 STARLINK-3502,1 51746U 22016AJ  22117.58335648 -.00585144  00000-0 -52715-2 0  9990,2 51746  53.2167 177.9539 0003025 281.2569 198.6571 15.69248676  3669,6739.184,91.764,363.088,359.011,0.0
51746.0,STARLINK-3502,PAYLOAD,2022-04-28 06:00:00,15.68247094,9.12e-05,53.2167,174.6687,64.8695,222.3497,-0.0056185,-0.00597076,0.0,0 STARLINK-3502,1 51746U 22016AJ  22118.25001157 -.00597076  00000-0 -56185-2 0  9992,2 51746  53.2167 174.6687 0000912  64.8695 222.3497 15.68247094 11601,6742.053000000001,91.822,364.533,363.30300000000005,0.0
51746.0,STARLINK-3502,PAYLOAD,2022-04-28 14:00:01,15.67824823,0.0001136,53.2174,173.0265,57.558,312.3906,-0.0069465,-0.00715151,0.0,0 STARLINK-3502,1 51746U 22016AJ  22118.58334491 -.00715151  00000-0 -69465-2 0  9999,2 51746  53.2174 173.0265 0001136  57.5580 312.3906 15.67824823 11655,6743.264,91.847,365.895,364.36300000000006,0.0
51746.0,STARLINK-3502,PAYLOAD,2022-04-29 14:00:01,15.66292744,0.0001171,53.2175,168.1155,79.9172,174.6761,-0.0073465,-0.00710847,0.0,0 STARLINK-3502,1 51746U 22016AJ  22119.58334491 -.00710847  00000-0 -73465-2 0  9992,2 51746  53.2175 168.1155 0001171  79.9172 174.6761 15.66292744 11819,6747.66,91.937,370.316,368.735,0.0
51746.0,STARLINK-3502,PAYLOAD,2022-04-29 22:00:00,15.65785788,0.000106,53.2176,166.4791,72.4289,262.487,-0.0075596999999999,-0.0071613,0.0,0 STARLINK-3502,1 51746U 22016AJ  22119.91667824 -.00716130  00000-0 -75597-2 0  9997,2 51746  53.2176 166.4791 0001060  72.4289 262.4870 15.65785788  3701,6749.1169999999975,91.967,371.697,370.266,0.0
51746.0,STARLINK-3502,PAYLOAD,2022-04-30 12:00:00,15.64894393,0.0001183,53.2176,163.6237,56.078,327.9259,-0.0078566,-0.00717903,0.0,0 STARLINK-3502,1 51746U 22016AJ  22120.50001157 -.00717903  00000-0 -78566-2 0  9993,2 51746  53.2176 163.6237 0001183  56.0780 327.9259 15.64894393 11951,6751.68,92.019,374.343,372.746,0.0
51746.0,STARLINK-3502,PAYLOAD,2022-04-30 14:00:01,15.64761953,0.0001317,53.2173,163.2158,53.5265,80.1958,-0.007793,-0.00709121,0.0,0 STARLINK-3502,1 51746U 22016AJ  22120.58334491 -.00709121  00000-0 -77930-2 0  9998,2 51746  53.2173 163.2158 0001317  53.5265  80.1958 15.64761953  3685,6752.06,92.027,374.815,373.036,0.0
51746.0,STARLINK-3502,PAYLOAD,2022-04-30 22:00:00,15.64254814,0.0001249,53.2174,161.5829,67.0428,145.1638,-0.0080063,-0.00713515,0.0,0 STARLINK-3502,1 51746U 22016AJ  22120.91667824 -.00713515  00000-0 -80063-2 0  9997,2 51746  53.2174 161.5829 0001249  67.0428 145.1638 15.64254814  3711,6753.52,92.057,376.228,374.541,0.0
51746.0,STARLINK-3502,PAYLOAD,2022-05-01 14:00:01,15.63235163,0.0001053,53.2172,158.3273,66.3131,301.0216,-0.0083365,-0.00713437,0.0,0 STARLINK-3502,1 51746U 22016AJ  22121.58334491 -.00713437  00000-0 -83365-2 0  9993,2 51746  53.2172 158.3273 0001053  66.3131 301.0216 15.63235163 12127,6756.456,92.117,379.033,377.61,0.0
51746.0,STARLINK-3502,PAYLOAD,2022-05-01 22:00:01,15.62724292,0.0001196,53.2174,156.6982,53.6937,30.3536,-0.0084955,-0.0071264,0.0,0 STARLINK-3502,1 51746U 22016AJ  22121.91668981 -.00712640  00000-0 -84955-2 0  9995,2 51746  53.2174 156.6982 0001196  53.6937  30.3536 15.62724292  3715,6757.929,92.147,380.602,378.985,0.0
51746.0,STARLINK-3502,PAYLOAD,2022-05-02 14:00:01,15.61704435,0.0001258,53.2172,153.4495,67.9797,167.4542,-0.0088314,-0.0071187,0.0,0 STARLINK-3502,1 51746U 22016AJ  22122.58334491 -.00711870  00000-0 -88314-2 0  9992,2 51746  53.2172 153.4495 0001258  67.9797 167.4542 15.61704435 12285,6760.87,92.207,383.586,381.885,0.0
51746.0,STARLINK-3502,PAYLOAD,2022-05-02 22:00:01,15.61180489,0.0001236,53.2169,151.8261,47.652,262.6604,-0.0087387,-0.00691891,0.0,0 STARLINK-3502,1 51746U 22016AJ  22122.91668981 -.00691891  00000-0 -87387-2 0  9992,2 51746  53.2169 151.8261 0001236  47.6520 262.6604 15.61180489  3665,6762.3830000000025,92.238,385.084,383.412,0.0
51746.0,STARLINK-3502,PAYLOAD,2022-05-03 14:00:01,15.60176019,0.0001192,53.217,148.5833,60.4859,37.5309,-0.009404,-0.00714173,0.0,0 STARLINK-3502,1 51746U 22016AJ  22123.58334491 -.00714173  00000-0 -94040-2 0  9995,2 51746  53.2170 148.5833 0001192  60.4859  37.5309 15.60176019 12433,6765.285,92.297,387.957,386.344,0.0
51746.0,STARLINK-3502,PAYLOAD,2022-05-03 22:00:00,15.59664992,0.0001388,53.2171,146.9616,54.0762,116.9112,-0.0095668,-0.00712576,0.0,0 STARLINK-3502,1 51746U 22016AJ  22123.91667824 -.00712576  00000-0 -95668-2 0  9993,2 51746  53.2171 146.9616 0001388  54.0762 116.9112 15.59664992  3708,6766.763000000001,92.328,389.567,387.689,0.0
51746.0,STARLINK-3502,PAYLOAD,2022-05-04 14:00:01,15.58646931,0.0001174,53.2172,143.7279,61.2495,253.8353,-0.0099799,-0.0071473,0.0,0 STARLINK-3502,1 51746U 22016AJ  22124.58334491 -.00714730  00000-0 -99799-2 0  9991,2 51746  53.2172 143.7279 0001174  61.2495 253.8353 15.58646931 12592,6769.709,92.388,392.369,390.779,0.0
51746.0,STARLINK-3502,PAYLOAD,2022-05-04 22:00:01,15.58134701,0.0001194,53.2173,142.11,53.0076,333.2752,-0.010141,-0.00712475,0.0,0 STARLINK-3502,1 51746U 22016AJ  22124.91668981 -.00712475  00000-0 -10141-1 0  9999,2 51746  53.2173 142.1100 0001194  53.0076 333.2752 15.58134701  3712,6771.193,92.418,393.866,392.249,0.0
51746.0,STARLINK-3502,PAYLOAD,2022-05-05 14:00:01,15.57116919,0.000132,53.2171,138.8836,61.50100000000001,105.1377,-0.010584,-0.00715322,0.0,0 STARLINK-3502,1 51746U 22016AJ  22125.58334491 -.00715322  00000-0 -10584-1 0  9994,2 51746  53.2171 138.8836 0001320  61.5010 105.1377 15.57116919  3710,6774.143,92.479,396.902,395.114,0.0
51746.0,STARLINK-3502,PAYLOAD,2022-05-05 16:00:00,15.56984259,0.00013,53.2167,138.4808,53.5556,220.4653,-0.010513,-0.00707671,0.0,0 STARLINK-3502,1 51746U 22016AJ  22125.66667824 -.00707671  00000-0 -10513-1 0  9992,2 51746  53.2167 138.4808 0001300  53.5556 220.4653 15.56984259 12766,6774.528,92.486,397.273,395.512,0.0
51746.0,STARLINK-3502,PAYLOAD,2022-05-05 22:00:00,15.5649358,0.0001727,53.2163,137.2712,52.632,183.3569,-0.0083507,-0.00562152,0.0,0 STARLINK-3502,1 51746U 22016AJ  22125.91667824 -.00562152  00000-0 -83507-2 0  9997,2 51746  53.2163 137.2712 0001727  52.6320 183.3569 15.56493580  3670,6775.951,92.516,398.987,396.646,0.0
51746.0,STARLINK-3502,PAYLOAD,2022-05-06 14:00:01,15.55586799,0.000113,53.2171,134.0507,57.3549,315.3216,-0.011183,-0.00713867,0.0,0 STARLINK-3502,1 51746U 22016AJ  22126.58334491 -.00713867  00000-0 -11183-1 0  9993,2 51746  53.2171 134.0507 0001130  57.3549 315.3216 15.55586799 12905,6778.584,92.57,401.215,399.6830000000001,0.0
51746.0,STARLINK-3502,PAYLOAD,2022-05-07 14:00:01,15.5405763,0.0001323,53.2171,129.2285,63.9046,149.2952,-0.011871,-0.00715993,0.0,0 STARLINK-3502,1 51746U 22016AJ  22127.58334491 -.00715993  00000-0 -11871-1 0  9990,2 51746  53.2171 129.2285 0001323  63.9046 149.2952 15.54057630 13068,6783.03,92.661,405.793,403.99800000000016,0.0
51746.0,STARLINK-3502,PAYLOAD,2022-05-07 22:00:00,15.53544961,0.0001305,53.2173,127.6219,59.7997,219.0176,-0.012011,-0.00711363,0.0,0 STARLINK-3502,1 51746U 22016AJ  22127.91667824 -.00711363  00000-0 -12011-1 0  9990,2 51746  53.2173 127.6219 0001305  59.7997 219.0176 15.53544961  3708,6784.523,92.691,407.273,405.502,0.0
51746.0,STARLINK-3502,PAYLOAD,2022-05-08 14:00:01,15.52526556,0.0001215,53.2172,124.4174,54.0913,354.1168,-0.012497,-0.00713005,0.0,0 STARLINK-3502,1 51746U 22016AJ  22128.58334491 -.00713005  00000-0 -12497-1 0  9998,2 51746  53.2172 124.4174 0001215  54.0913 354.1168 15.52526556  3709,6787.489000000001,92.752,410.179,408.529,0.0
51746.0,STARLINK-3502,PAYLOAD,2022-05-08 20:00:01,15.5214179,0.0001262999999999,53.2174,123.215,49.3897,316.7106,-0.012612,-0.00709889,0.0,0 STARLINK-3502,1 51746U 22016AJ  22128.83334491 -.00709889  00000-0 -12612-1 0  9990,2 51746  53.2174 123.2150 0001263  49.3897 316.7106 15.52141790 13253,6788.611,92.775,411.333,409.61800000000005,0.0
51746.0,STARLINK-3502,PAYLOAD,2022-05-08 22:00:00,15.52016445,0.0001429,53.2174,122.8148,48.6051,63.3813,-0.012742,-0.00713647,0.0,0 STARLINK-3502,1 51746U 22016AJ  22128.91667824 -.00713647  00000-0 -12742-1 0  9999,2 51746  53.2174 122.8148 0001429  48.6051  63.3813 15.52016445  3700,6788.976,92.783,411.811,409.871,0.0
51746.0,STARLINK-3502,PAYLOAD,2022-05-09 14:00:01,15.50997624,0.0001346,53.2172,119.6174,64.2121,173.5536,-0.013252,-0.00724481,0.0,0 STARLINK-3502,1 51746U 22016AJ  22129.58335648 -.00724481  00000-0 -13252-1 0  9994,2 51746  53.2172 119.6174 0001346  64.2121 173.5536 15.50997624  3702,6791.949000000001,92.843,414.728,412.9,0.0
